LEMUR-1                 
1 40044U 14033AL  23026.45233660  .00003292  00000+0  47743-3 0  9998
2 40044  97.6575 208.0738 0058039 155.3736 205.0266 14.75521632462353
LEMUR-2-XIAOQING        
1 41871U 16062C   23026.48199703  .00116239  00000+0  15973-2 0  9998
2 41871  51.6306 336.9341 0004258  85.5616 274.5862 15.56412607344410
LEMUR-2-SOKOLSKY        
1 41872U 16062D   23026.46738235  .00125306  00000+0  17116-2 0  9992
2 41872  51.6720 347.9583 0004039 120.1628 239.9764 15.56537299344373
LEMUR-2-ANUBHAVTHAKUR   
1 41873U 16062E   23026.04747564  .00018567  00000+0  59947-3 0  9991
2 41873  51.6796  52.6781 0007440 359.1244   0.9724 15.32134887343409
LEMUR-2-WINGO           
1 41874U 16062F   23026.49464569  .00108683  00000+0  16537-2 0  9998
2 41874  51.6441 349.9590 0003667 330.7265  29.3519 15.53670342344257
LEMUR-2-JOBANPUTRA      
1 41991U 17008AV  23025.89415022  .00051833  00000+0  11724-2 0  9999
2 41991  97.2304  88.9671 0005450 147.1197 213.0391 15.42970952330339
LEMUR-2-SPIRE-MINIONS   
1 41992U 17008AW  23026.41081211  .00101965  00000+0  17368-2 0  9990
2 41992  97.2377  95.5427 0003393 133.8055 226.3479 15.51016827330754
LEMUR-2-SATCHMO         
1 41993U 17008AX  23026.09615341  .00037573  00000+0  93596-3 0  9993
2 41993  97.2279  89.2185 0005553 147.0988 213.0605 15.40130099330366
LEMUR-2-SMITA-SHARAD    
1 41994U 17008AY  23026.15639707  .00075419  00000+0  13378-2 0  9993
2 41994  97.2384  94.9992 0004051 132.3170 227.8425 15.49968237330708
LEMUR-2-RDEATON         
1 41995U 17008AZ  23026.63774792  .00038767  00000+0  99778-3 0  9995
2 41995  97.2346  89.9568 0006052 158.0198 202.1308 15.39120649331127
LEMUR-2-TACHIKOMA       
1 41996U 17008BA  23026.15889274  .00084996  00000+0  15968-2 0  9998
2 41996  97.2442  95.1139 0004661 152.0667 208.0835 15.48282161330562
LEMUR-2-NOGUECORREIG    
1 41997U 17008BB  23026.42035457  .00090425  00000+0  15365-2 0  9990
2 41997  97.2379  96.1186 0004166 147.8052 212.3456 15.51126648330765
LEMUR-2-MIA-GRACE       
1 41998U 17008BC  23026.13147556  .00037490  00000+0  97002-3 0  9995
2 41998  97.2320  88.9596 0005809 161.2059 198.9402 15.38967485330260
LEMUR-2-ANGELA          
1 42752U 17019B   23026.54000381  .00119403  00000+0  13752-2 0  9999
2 42752  51.6256 217.7570 0005864 178.1779 181.9237 15.61066524315757
LEMUR-2-ROBMOORE        
1 42754U 17019D   23026.57268118  .00089880  00000+0  12356-2 0  9992
2 42754  51.6263 221.6735 0005605 178.9260 181.1744 15.56516959315683
LEMUR-2-SHAINAJOHL      
1 42771U 17036G   23026.04994245  .00047985  00000+0  11966-2 0  9995
2 42771  97.1733  66.8711 0007939 231.0827 128.9713 15.40025718311114
LEMUR-2-XUENITERENCE    
1 42772U 17036H   23026.59984456  .00070296  00000+0  15076-2 0  9996
2 42772  97.1579  67.9357 0007007 220.2653 139.8078 15.44461905311283
LEMUR-2-LUCYBRYCE       
1 42773U 17036J   23026.61139165  .00036982  00000+0  10229-2 0  9998
2 42773  97.1773  67.0376 0008064 231.6140 128.4382 15.36890201311124
LEMUR-2-KUNGFOO         
1 42774U 17036K   23026.58310566  .00048545  00000+0  11885-2 0  9998
2 42774  97.1723  67.9261 0007500 224.4072 135.6574 15.40586436311221
LEMUR-2-LYNSEY-SYMO     
1 42779U 17036Q   23026.37348471  .00048064  00000+0  10186-2 0  9995
2 42779  97.1757  73.2490 0006512 218.0791 141.9999 15.44917001311508
LEMUR-2-LISASAURUS      
1 42780U 17036R   23026.56194134  .00050992  00000+0  11955-2 0  9991
2 42780  97.1721  69.2088 0006210 233.8801 126.1872 15.41894263311271
LEMUR-2-SAM-AMELIA      
1 42781U 17036S   23026.36228602  .00018864  00000+0  56853-3 0  9997
2 42781  97.1796  68.7964 0007770 238.3843 121.6643 15.34332155311195
LEMUR-2-MCPEAKE         
1 42782U 17036T   23026.58639729  .00042736  00000+0  10456-2 0  9991
2 42782  97.1735  70.9560 0006287 226.2201 133.8526 15.40644382311394
LEMUR-2-GREENBERG       
1 42837U 17042N   23026.52896688  .00007901  00000+0  72332-3 0  9999
2 42837  97.4033 236.7610 0011727 337.3617  22.7086 14.95155409301580
LEMUR-2-ANDIS           
1 42838U 17042P   23026.52179150  .00007634  00000+0  69843-3 0  9994
2 42838  97.4013 236.6683 0011775 336.2266  23.8410 14.95190689301581
LEMUR-2-MONSON          
1 42839U 17042Q   23026.57609483  .00006918  00000+0  63779-3 0  9993
2 42839  97.4027 236.4469 0011653 335.5896  24.4772 14.94922352301568
LEMUR-2-FURIAUS         
1 42840U 17042R   23026.53769436  .00008760  00000+0  81073-3 0  9990
2 42840  97.4066 236.7578 0012085 338.2431  21.8276 14.94691099301552
LEMUR-2-PETERG          
1 42841U 17042S   23026.52516766  .00008955  00000+0  82206-3 0  9991
2 42841  97.4080 237.9862 0011381 333.1224  26.9407 14.95011089301626
LEMUR-2-DEMBITZ         
1 42842U 17042T   23026.52402682  .00006963  00000+0  63528-3 0  9996
2 42842  97.4056 237.8861 0011313 333.3477  26.7162 14.95332700301638
LEMUR-2-ZACHARY         
1 42845U 17042W   23026.54369032  .00008733  00000+0  77375-3 0  9994
2 42845  97.3949 237.0320 0011523 334.4153  25.6497 14.96408021301695
LEMUR-2-MCCAFFERTY      
1 43123U 18004N   23025.99175649  .00131892  00000+0  20792-2 0  9993
2 43123  97.3536 112.4862 0005910 274.6267  85.4311 15.53064321280867
LEMUR-2-PETERWEBSTER    
1 43124U 18004P   23026.45389348  .00075894  00000+0  13175-2 0  9995
2 43124  97.3555 112.3514 0005015 267.3378  92.7300 15.50574134280897
LEMUR-2-BROWNCOW        
1 43125U 18004Q   23025.81319440  .00113150  00000+0  15963-2 0  9996
2 43125  97.3617 114.4495 0005130 271.3417  88.7250 15.56189570280942
LEMUR-2-DAVEWILSON      
1 43126U 18004R   23026.02724365  .00121403  00000+0  15702-2 0  9998
2 43126  97.3602 114.6475 0005376 266.1802  93.8839 15.58499147280989
LEMUR-2-MARSHALL        
1 43165U 18010C   23026.57867295  .00057598  00000+0  14684-2 0  9999
2 43165  82.9094 212.9195 0020674 255.1230 104.7726 15.39074580278667
LEMUR-2-TALLHAMN-ATC    
1 43167U 18010E   23026.58306879  .00022544  00000+0  70495-3 0  9994
2 43167  82.9138 220.3922 0017258 283.5907  76.3414 15.32869816278204
LEMUR-2-JIN-LUEN        
1 43182U 18014C   23025.67013651  .00009186  00000+0  71784-3 0  9996
2 43182  97.6319 290.3103 0016574 291.1999  68.7454 15.01208903272202
LEMUR-2-URAMCHANSOL     
1 43183U 18014D   23026.52944549  .00010430  00000+0  80559-3 0  9995
2 43183  97.6341 291.4582 0015374 269.2137  90.7326 15.01632726272340
LEMUR-2-KADI            
1 43184U 18014E   23026.04405107  .00009589  00000+0  75717-3 0  9998
2 43184  97.6275 290.7303 0013179 243.7032 116.2838 15.00836476272251
LEMUR-2-THENICKMOLO     
1 43185U 18014F   23025.97637707  .00009717  00000+0  76104-3 0  9997
2 43185  97.6253 290.9999 0007040 240.0759 119.9766 15.01192023272251
LEMUR-2-VU              
1 43558U 18046E   23026.55100159  .00767726  26645-3  18337-2 0  9998
2 43558  51.6222 125.5045 0009032 358.5905   1.5076 15.95938504254353
LEMUR-2-TOMHENDERSON    
1 43561U 18046H   23026.46894655  .00545178  00000+0  21762-2 0  9997
2 43561  51.6353 134.7935 0009922  68.5580 291.6481 15.84556449253787
LEMUR-2-ZUPANSKI        
1 43695U 18088F   23026.35928440  .00044172  00000+0  11807-2 0  9996
2 43695  85.0278 163.7246 0011517  24.3966 335.7827 15.37824807234035
LEMUR-2-CHANUSIAK       
1 43697U 18088H   23026.35589845  .00049460  00000+0  12204-2 0  9997
2 43697  85.0332 163.5694 0011512   8.5330 351.6115 15.40260831234185
LEMUR-2-ORZULAK         
1 43731U 18096N   23025.45410448  .00952497  45563-3  16760-2 0  9998
2 43731  97.3462 122.4317 0020842 309.1285  50.8141 16.01678371232797
LEMUR-2-KOBYSZCZE       
1 43732U 18096P   23025.81835881  .00921575  40045-3  19715-2 0  9997
2 43732  97.3486 123.3356 0019525 309.2621  50.6923 15.98299242232874
LEMUR-2-DULY            
1 43745U 18096AC  23025.72056318  .00353187  00000+0  19288-2 0  9997
2 43745  97.3481 121.6129 0014825 306.0457  53.9436 15.78791726232778
LEMUR-2-CHRISTINAHOLT   
1 43882U 18111G   23026.53083786  .00010127  00000+0  77572-3 0  9991
2 43882  97.6652 295.9620 0007595 251.8923 108.1474 15.02026850223215
LEMUR-2-TINYKEV         
1 43883U 18111H   23026.28159030  .00010336  00000+0  77850-3 0  9991
2 43883  97.6454 295.7899 0008860 253.7595 106.2655 15.02654198223193
LEMUR-2-REMY-COLTON     
1 43884U 18111J   23026.63706834  .00012828  00000+0  97259-3 0  9994
2 43884  97.6509 296.8099 0000508 262.0072  98.1095 15.02375991221278
LEMUR-2-GUSTAVO         
1 43885U 18111K   23026.32308345  .00010714  00000+0  82003-3 0  9999
2 43885  97.6552 296.0639 0013982 259.2584 100.7067 15.01987986223199
LEMUR-2-ZO              
1 43886U 18111L   23026.63994655  .00012322  00000+0  94311-3 0  9991
2 43886  97.6386 296.6018 0014006 283.8132  76.1533 15.01951036221258
LEMUR-2-NATALIEMURRAY   
1 43887U 18111M   23026.31273370  .00009838  00000+0  75029-3 0  9994
2 43887  97.6513 296.7169 0010408 223.9634 136.0764 15.02182509223226
LEMUR-2-SARAHBETTYBOO   
1 43888U 18111N   23025.99113296  .00011909  00000+0  90044-3 0  9994
2 43888  97.6873 297.0194 0012239 322.6010  37.4362 15.02445524223189
LEMUR-2-DAISY-HARPER    
1 43889U 18111P   23026.65264513  .00011587  00000+0  87647-3 0  9995
2 43889  97.6767 297.7941 0010679 317.7813  42.2589 15.02450068223286
LEMUR-2-JOHANLORAN      
1 44084U 19018G   23026.42091926  .00218495  00000+0  21465-2 0  9993
2 44084  97.2840  94.4305 0005102   3.6412 356.4884 15.65326048213218
LEMUR-2-BEAUDACIOUS     
1 44085U 19018H   23026.15937464  .00063636  00000+0  13449-2 0  9998
2 44085  97.2815  90.4373 0008505  35.1447 325.0361 15.44911876212936
LEMUR-2-ELHAM           
1 44086U 19018J   23026.41680375  .00091885  00000+0  15655-2 0  9992
2 44086  97.2908  93.1764 0007740  14.9842 345.1638 15.51022784213118
LEMUR-2-VICTOR-ANDREW   
1 44087U 19018K   23026.12890425  .00239643  00000+0  23036-2 0  9998
2 44087  97.2888  94.9443 0004426   2.6051 357.5231 15.65812016213209
LEMUR-2-LILLYJO         
1 44396U 19038L   23026.44800543  .00027342  00000+0  10509-2 0  9992
2 44396  97.6426   4.0627 0020872  76.2788 284.0772 15.26189092196995
